[{"OBJECT_NAME":"STARLINK-36841","OBJECT_ID":"2026-037AE","EPOCH":"2026-03-05T22:00:01.999584","MEAN_MOTION":15.94371409,"ECCENTRICITY":0.00016264,"INCLINATION":42.9997,"RA_OF_ASC_NODE":221.6277,"ARG_OF_PERICENTER":286.3273,"MEAN_ANOMALY":99.4334,"EPHEMERIS_TYPE":0,"CLASSIFICATION_TYPE":"U","NORAD_CAT_ID":67960,"ELEMENT_SET_NO":999,"REV_AT_EPOCH":259,"BSTAR":-0.0036874931,"MEAN_MOTION_DOT":-0.01433746,"MEAN_MOTION_DDOT":0.00059781828},{"OBJECT_NAME":"STARLINK-36912","OBJECT_ID":"2026-038A","EPOCH":"2026-03-05T22:00:01.999584","MEAN_MOTION":15.99495061,"ECCENTRICITY":0.00010875,"INCLINATION":97.2762,"RA_OF_ASC_NODE":74.9001,"ARG_OF_PERICENTER":71.8501,"MEAN_ANOMALY":289.5032,"EPHEMERIS_TYPE":0,"CLASSIFICATION_TYPE":"U","NORAD_CAT_ID":67961,"ELEMENT_SET_NO":999,"REV_AT_EPOCH":259,"BSTAR":-0.0030983193,"MEAN_MOTION_DOT":-0.01514854,"MEAN_MOTION_DDOT":0.00070315993},{"OBJECT_NAME":"STARLINK-36881","OBJECT_ID":"2026-038B","EPOCH":"2026-03-05T22:00:01.999584","MEAN_MOTION":15.99573297,"ECCENTRICITY":0.0001054,"INCLINATION":97.276,"RA_OF_ASC_NODE":74.9008,"ARG_OF_PERICENTER":71.7747,"MEAN_ANOMALY":291.4992,"EPHEMERIS_TYPE":0,"CLASSIFICATION_TYPE":"U","NORAD_CAT_ID":67962,"ELEMENT_SET_NO":999,"REV_AT_EPOCH":259,"BSTAR":-0.0030800101,"MEAN_MOTION_DOT":-0.01512553,"MEAN_MOTION_DDOT":0.00070179067},{"OBJECT_NAME":"STARLINK-36357","OBJECT_ID":"2026-038C","EPOCH":"2026-03-05T22:00:01.999584","MEAN_MOTION":15.99815898,"ECCENTRICITY":0.00011491,"INCLINATION":97.2757,"RA_OF_ASC_NODE":74.9033,"ARG_OF_PERICENTER":70.6254,"MEAN_ANOMALY":297.7464,"EPHEMERIS_TYPE":0,"CLASSIFICATION_TYPE":"U","NORAD_CAT_ID":67963,"ELEMENT_SET_NO":999,"REV_AT_EPOCH":259,"BSTAR":-0.0030420352,"MEAN_MOTION_DOT":-0.01514432,"MEAN_MOTION_DDOT":0.00070532378},{"OBJECT_NAME":"STARLINK-36349","OBJECT_ID":"2026-038D","EPOCH":"2026-03-05T22:00:01.999584","MEAN_MOTION":15.9970073,"ECCENTRICITY":0.00011844,"INCLINATION":97.2755,"RA_OF_ASC_NODE":74.9018,"ARG_OF_PERICENTER":72.8734,"MEAN_ANOMALY":292.944,"EPHEMERIS_TYPE":0,"CLASSIFICATION_TYPE":"U","NORAD_CAT_ID":67964,"ELEMENT_SET_NO":999,"REV_AT_EPOCH":259,"BSTAR":-0.0030754252,"MEAN_MOTION_DOT":-0.01521086,"MEAN_MOTION_DDOT":0.00071017245},{"OBJECT_NAME":"STARLINK-36806","OBJECT_ID":"2026-038E","EPOCH":"2026-03-05T22:00:01.999584","MEAN_MOTION":15.99956444,"ECCENTRICITY":0.00011076,"INCLINATION":97.2752,"RA_OF_ASC_NODE":74.9043,"ARG_OF_PERICENTER":67.4952,"MEAN_ANOMALY":303.8281,"EPHEMERIS_TYPE":0,"CLASSIFICATION_TYPE":"U","NORAD_CAT_ID":67965,"ELEMENT_SET_NO":999,"REV_AT_EPOCH":259,"BSTAR":-0.0030209917,"MEAN_MOTION_DOT":-0.01515899,"MEAN_MOTION_DDOT":0.00070771008},{"OBJECT_NAME":"STARLINK-36820","OBJECT_ID":"2026-038F","EPOCH":"2026-03-05T22:00:01.999584","MEAN_MOTION":16.00068596,"ECCENTRICITY":0.00010981,"INCLINATION":97.2752,"RA_OF_ASC_NODE":74.9055,"ARG_OF_PERICENTER":75.7037,"MEAN_ANOMALY":298.0986,"EPHEMERIS_TYPE":0,"CLASSIFICATION_TYPE":"U","NORAD_CAT_ID":67966,"ELEMENT_SET_NO":999,"REV_AT_EPOCH":259,"BSTAR":-0.0029793083,"MEAN_MOTION_DOT":-0.01504614,"MEAN_MOTION_DDOT":0.00069883694},{"OBJECT_NAME":"STARLINK-36819","OBJECT_ID":"2026-038G","EPOCH":"2026-03-05T22:00:01.999584","MEAN_MOTION":16.00193341,"ECCENTRICITY":0.00011502,"INCLINATION":97.275,"RA_OF_ASC_NODE":74.9065,"ARG_OF_PERICENTER":68.0456,"MEAN_ANOMALY":308.4262,"EPHEMERIS_TYPE":0,"CLASSIFICATION_TYPE":"U","NORAD_CAT_ID":67967,"ELEMENT_SET_NO":999,"REV_AT_EPOCH":259,"BSTAR":-0.0029660013,"MEAN_MOTION_DOT":-0.01508468,"MEAN_MOTION_DDOT":0.0007031542},{"OBJECT_NAME":"STARLINK-36812","OBJECT_ID":"2026-038H","EPOCH":"2026-03-05T22:00:01.999584","MEAN_MOTION":16.00300517,"ECCENTRICITY":0.00011127,"INCLINATION":97.2747,"RA_OF_ASC_NODE":74.907,"ARG_OF_PERICENTER":70.6449,"MEAN_ANOMALY":308.1205,"EPHEMERIS_TYPE":0,"CLASSIFICATION_TYPE":"U","NORAD_CAT_ID":67968,"ELEMENT_SET_NO":999,"REV_AT_EPOCH":259,"BSTAR":-0.0029515931,"MEAN_MOTION_DOT":-0.01510255,"MEAN_MOTION_DDOT":0.00070555443},{"OBJECT_NAME":"STARLINK-36709","OBJECT_ID":"2026-038J","EPOCH":"2026-03-05T22:00:01.999584","MEAN_MOTION":16.00550286,"ECCENTRICITY":0.00011481,"INCLINATION":97.2747,"RA_OF_ASC_NODE":74.9097,"ARG_OF_PERICENTER":67.0299,"MEAN_ANOMALY":317.1848,"EPHEMERIS_TYPE":0,"CLASSIFICATION_TYPE":"U","NORAD_CAT_ID":67969,"ELEMENT_SET_NO":999,"REV_AT_EPOCH":259,"BSTAR":-0.002870093,"MEAN_MOTION_DOT":-0.01489777,"MEAN_MOTION_DDOT":0.00068984139},{"OBJECT_NAME":"STARLINK-36319","OBJECT_ID":"2026-038K","EPOCH":"2026-03-05T22:00:01.999584","MEAN_MOTION":16.00420071,"ECCENTRICITY":0.00012025,"INCLINATION":97.2746,"RA_OF_ASC_NODE":74.9083,"ARG_OF_PERICENTER":61.6206,"MEAN_ANOMALY":319.8458,"EPHEMERIS_TYPE":0,"CLASSIFICATION_TYPE":"U","NORAD_CAT_ID":67970,"ELEMENT_SET_NO":999,"REV_AT_EPOCH":256,"BSTAR":-0.0028857695,"MEAN_MOTION_DOT":-0.01486915,"MEAN_MOTION_DDOT":0.00068637186},{"OBJECT_NAME":"STARLINK-36710","OBJECT_ID":"2026-038L","EPOCH":"2026-03-05T22:00:01.999584","MEAN_MOTION":16.00687191,"ECCENTRICITY":9.631e-5,"INCLINATION":97.2745,"RA_OF_ASC_NODE":74.9113,"ARG_OF_PERICENTER":99.7042,"MEAN_ANOMALY":287.8722,"EPHEMERIS_TYPE":0,"CLASSIFICATION_TYPE":"U","NORAD_CAT_ID":67971,"ELEMENT_SET_NO":999,"REV_AT_EPOCH":259,"BSTAR":-0.0028417417,"MEAN_MOTION_DOT":-0.01486603,"MEAN_MOTION_DDOT":0.00068817605},{"OBJECT_NAME":"STARLINK-36894","OBJECT_ID":"2026-038M","EPOCH":"2026-03-05T22:00:01.999584","MEAN_MOTION":16.00839859,"ECCENTRICITY":0.00012346,"INCLINATION":97.274,"RA_OF_ASC_NODE":74.9124,"ARG_OF_PERICENTER":59.8432,"MEAN_ANOMALY":330.4372,"EPHEMERIS_TYPE":0,"CLASSIFICATION_TYPE":"U","NORAD_CAT_ID":67972,"ELEMENT_SET_NO":999,"REV_AT_EPOCH":259,"BSTAR":-0.0028080978,"MEAN_MOTION_DOT":-0.01481958,"MEAN_MOTION_DDOT":0.00068538691},{"OBJECT_NAME":"STARLINK-36900","OBJECT_ID":"2026-038N","EPOCH":"2026-03-05T22:00:01.999584","MEAN_MOTION":16.01098127,"ECCENTRICITY":0.00011575,"INCLINATION":97.2739,"RA_OF_ASC_NODE":74.9145,"ARG_OF_PERICENTER":68.425,"MEAN_ANOMALY":327.3359,"EPHEMERIS_TYPE":0,"CLASSIFICATION_TYPE":"U","NORAD_CAT_ID":67973,"ELEMENT_SET_NO":999,"REV_AT_EPOCH":259,"BSTAR":-0.0027516047,"MEAN_MOTION_DOT":-0.01473828,"MEAN_MOTION_DDOT":0.00068042208},{"OBJECT_NAME":"STARLINK-36901","OBJECT_ID":"2026-038P","EPOCH":"2026-03-05T22:00:01.999584","MEAN_MOTION":16.00958526,"ECCENTRICITY":0.00013266,"INCLINATION":97.2739,"RA_OF_ASC_NODE":74.9132,"ARG_OF_PERICENTER":54.7524,"MEAN_ANOMALY":338.1339,"EPHEMERIS_TYPE":0,"CLASSIFICATION_TYPE":"U","NORAD_CAT_ID":67974,"ELEMENT_SET_NO":999,"REV_AT_EPOCH":259,"BSTAR":-0.0027728347,"MEAN_MOTION_DOT":-0.01473424,"MEAN_MOTION_DDOT":0.00067899661},{"OBJECT_NAME":"STARLINK-36883","OBJECT_ID":"2026-038Q","EPOCH":"2026-03-05T22:00:01.999584","MEAN_MOTION":16.01635596,"ECCENTRICITY":0.00012713,"INCLINATION":97.2733,"RA_OF_ASC_NODE":74.9192,"ARG_OF_PERICENTER":60.5608,"MEAN_ANOMALY":346.2967,"EPHEMERIS_TYPE":0,"CLASSIFICATION_TYPE":"U","NORAD_CAT_ID":67975,"ELEMENT_SET_NO":999,"REV_AT_EPOCH":259,"BSTAR":-0.0026641794,"MEAN_MOTION_DOT":-0.01471821,"MEAN_MOTION_DDOT":0.00068290166}]
